{"type": "FeatureCollection", "features": [ {"type": "Feature", "properties": {"norad_id": 32343, "name": "FENGYUN 1C DEB", "group": "fengyun-1c-debris", "lat": 37.849905286682805, "lon": 167.48661580992885, "alt_km": 732.950184241924, "timestamp": "2025-12-20T03:42:47.679217+00:00", "meta": {"OBJECT_NAME": "FENGYUN 1C DEB", "OBJECT_ID": "1999-025CYL", "EPOCH": "2025-12-13T05:18:56.833632", "MEAN_MOTION": 14.19848796, "ECCENTRICITY": 0.01521973, "INCLINATION": 98.6084, "RA_OF_ASC_NODE": 333.9812, "ARG_OF_PERICENTER": 126.2805, "MEAN_ANOMALY": 235.2541, "EPHEMERIS_TYPE": 0, "CLASSIFICATION_TYPE": "U", "NORAD_CAT_ID": 32343, "ELEMENT_SET_NO": 999, "REV_AT_EPOCH": 64720, "BSTAR": 0.00041342117, "MEAN_MOTION_DOT": 9.43e-06, "MEAN_MOTION_DDOT": 0}, "tle": {"line1": "1 32343U 99025CYL 25347.22149113  .00000943  00000+0  41342-3 0  9996", "line2": "2 32343  98.6084 333.9812 0152197 126.2805 235.2541 14.19848796647208"}}, "geometry": {"type": "Point", "coordinates": [167.48661580992885, 37.849905286682805]}}, {"type": "Feature", "properties": {"norad_id": 32350, "name": "FENGYUN 1C DEB", "group": "fengyun-1c-debris", "lat": -26.02528714755594, "lon": -145.2840322270432, "alt_km": 652.2846147333867, "timestamp": "2025-12-20T03:42:47.679228+00:00", "meta": {"OBJECT_NAME": "FENGYUN 1C DEB", "OBJECT_ID": "1999-025CYT", "EPOCH": "2025-12-14T09:31:41.023776", "MEAN_MOTION": 14.52585967, "ECCENTRICITY": 0.02665518, "INCLINATION": 98.2297, "RA_OF_ASC_NODE": 33.1134, "ARG_OF_PERICENTER": 293.5046, "MEAN_ANOMALY": 63.8346, "EPHEMERIS_TYPE": 0, "CLASSIFICATION_TYPE": "U", "NORAD_CAT_ID": 32350, "ELEMENT_SET_NO": 999, "REV_AT_EPOCH": 97551, "BSTAR": 0.00074129025, "MEAN_MOTION_DOT": 4.788e-05, "MEAN_MOTION_DDOT": 0}, "tle": {"line1": "1 32350U 99025CYT 25348.39700259  .00004788  00000+0  74129-3 0  9997", "line2": "2 32350  98.2297  33.1134 0266551 293.5046  63.8346 14.52585967975510"}}, "geometry": {"type": "Point", "coordinates": [-145.2840322270432, -26.02528714755594]}}, {"type": "Feature", "properties": {"norad_id": 32352, "name": "FENGYUN 1C DEB", "group": "fengyun-1c-debris", "lat": 12.131277761098753, "lon": -87.53608777325367, "alt_km": 817.9681509114043, "timestamp": "2025-12-20T03:42:47.679238+00:00", "meta": {"OBJECT_NAME": "FENGYUN 1C DEB", "OBJECT_ID": "1999-025CYV", "EPOCH": "2025-12-19T12:39:41.171040", "MEAN_MOTION": 14.41429626, "ECCENTRICITY": 0.0122359, "INCLINATION": 98.7786, "RA_OF_ASC_NODE": 273.7231, "ARG_OF_PERICENTER": 150.9024, "MEAN_ANOMALY": 209.9056, "EPHEMERIS_TYPE": 0, "CLASSIFICATION_TYPE": "U", "NORAD_CAT_ID": 32352, "ELEMENT_SET_NO": 999, "REV_AT_EPOCH": 65367, "BSTAR": 0.0001377, "MEAN_MOTION_DOT": 4.38e-06, "MEAN_MOTION_DDOT": 0}, "tle": {"line1": "1 32352U 99025CYV 25353.52755985  .00000438  00000+0  13770-3 0  9999", "line2": "2 32352  98.7786 273.7231 0122359 150.9024 209.9056 14.41429626653677"}}, "geometry": {"type": "Point", "coordinates": [-87.53608777325367, 12.131277761098753]}}, {"type": "Feature", "properties": {"norad_id": 32353, "name": "FENGYUN 1C DEB", "group": "fengyun-1c-debris", "lat": -79.44062941352949, "lon": -66.92875662724137, "alt_km": 879.8289046769924, "timestamp": "2025-12-20T03:42:47.679250+00:00", "meta": {"OBJECT_NAME": "FENGYUN 1C DEB", "OBJECT_ID": "1999-025CYW", "EPOCH": "2025-12-14T18:10:27.215616", "MEAN_MOTION": 14.03836024, "ECCENTRICITY": 0.01250888, "INCLINATION": 98.9217, "RA_OF_ASC_NODE": 165.1959, "ARG_OF_PERICENTER": 193.6238, "MEAN_ANOMALY": 166.1542, "EPHEMERIS_TYPE": 0, "CLASSIFICATION_TYPE": "U", "NORAD_CAT_ID": 32353, "ELEMENT_SET_NO": 999, "REV_AT_EPOCH": 63222, "BSTAR": 0.0024513199, "MEAN_MOTION_DOT": 4.1e-05, "MEAN_MOTION_DDOT": 0}, "tle": {"line1": "1 32353U 99025CYW 25348.75725944  .00004100  00000+0  24513-2 0  9997", "line2": "2 32353  98.9217 165.1959 0125088 193.6238 166.1542 14.03836024632227"}}, "geometry": {"type": "Point", "coordinates": [-66.92875662724137, -79.44062941352949]}}, {"type": "Feature", "properties": {"norad_id": 32355, "name": "FENGYUN 1C DEB", "group": "fengyun-1c-debris", "lat": 31.388064583629614, "lon": -80.53678015029195, "alt_km": 410.7794414221289, "timestamp": "2025-12-20T03:42:47.679260+00:00", "meta": {"OBJECT_NAME": "FENGYUN 1C DEB", "OBJECT_ID": "1999-025CYY", "EPOCH": "2025-12-15T13:52:23.647008", "MEAN_MOTION": 15.41566908, "ECCENTRICITY": 0.00300422, "INCLINATION": 100.3422, "RA_OF_ASC_NODE": 279.3759, "ARG_OF_PERICENTER": 75.3409, "MEAN_ANOMALY": 101.6774, "EPHEMERIS_TYPE": 0, "CLASSIFICATION_TYPE": "U", "NORAD_CAT_ID": 32355, "ELEMENT_SET_NO": 999, "REV_AT_EPOCH": 65034, "BSTAR": 0.009370241, "MEAN_MOTION_DOT": 0.00421206, "MEAN_MOTION_DDOT": 0}, "tle": {"line1": "1 32355U 99025CYY 25349.57805147  .00421206  00000+0  93702-2 0  9990", "line2": "2 32355 100.3422 279.3759 0030042  75.3409 101.6774 15.41566908650340"}}, "geometry": {"type": "Point", "coordinates": [-80.53678015029195, 31.388064583629614]}}, {"type": "Feature", "properties": {"norad_id": 32356, "name": "FENGYUN 1C DEB", "group": "fengyun-1c-debris", "lat": 77.38407199769871, "lon": 136.90526037983182, "alt_km": 874.2223754745291, "timestamp": "2025-12-20T03:42:47.679270+00:00", "meta": {"OBJECT_NAME": "FENGYUN 1C DEB", "OBJECT_ID": "1999-025CYZ", "EPOCH": "2025-12-18T13:39:38.979360", "MEAN_MOTION": 14.03420971, "ECCENTRICITY": 0.01257795, "INCLINATION": 102.496, "RA_OF_ASC_NODE": 216.9595, "ARG_OF_PERICENTER": 1.6093, "MEAN_ANOMALY": 358.5442, "EPHEMERIS_TYPE": 0, "CLASSIFICATION_TYPE": "U", "NORAD_CAT_ID": 32356, "ELEMENT_SET_NO": 999, "REV_AT_EPOCH": 68469, "BSTAR": 0.0018654991, "MEAN_MOTION_DOT": 3.058e-05, "MEAN_MOTION_DDOT": 0}, "tle": {"line1": "1 32356U 99025CYZ 25352.56920115  .00003058  00000+0  18655-2 0  9992", "line2": "2 32356 102.4960 216.9595 0125779   1.6093 358.5442 14.03420971684695"}}, "geometry": {"type": "Point", "coordinates": [136.90526037983182, 77.38407199769871]}}, {"type": "Feature", "properties": {"norad_id": 32357, "name": "FENGYUN 1C DEB", "group": "fengyun-1c-debris", "lat": 66.54276453467551, "lon": 11.861640762519956, "alt_km": 1041.0983732471705, "timestamp": "2025-12-20T03:42:47.679281+00:00", "meta": {"OBJECT_NAME": "FENGYUN 1C DEB", "OBJECT_ID": "1999-025CZA", "EPOCH": "2025-12-13T21:20:47.666112", "MEAN_MOTION": 13.68708108, "ECCENTRICITY": 0.04907347, "INCLINATION": 98.8577, "RA_OF_ASC_NODE": 27.1403, "ARG_OF_PERICENTER": 184.5127, "MEAN_ANOMALY": 353.61, "EPHEMERIS_TYPE": 0, "CLASSIFICATION_TYPE": "U", "NORAD_CAT_ID": 32357, "ELEMENT_SET_NO": 999, "REV_AT_EPOCH": 66803, "BSTAR": 0.0036548407, "MEAN_MOTION_DOT": 7.308e-05, "MEAN_MOTION_DDOT": 0}, "tle": {"line1": "1 32357U 99025CZA 25347.88944058  .00007308  00000+0  36548-2 0  9997", "line2": "2 32357  98.8577  27.1403 0490734 184.5127 353.6100 13.68708108668031"}}, "geometry": {"type": "Point", "coordinates": [11.861640762519956, 66.54276453467551]}}, {"type": "Feature", "properties": {"norad_id": 32360, "name": "FENGYUN 1C DEB", "group": "fengyun-1c-debris", "lat": 48.0718339480608, "lon": 161.4211002155623, "alt_km": 981.5750811171565, "timestamp": "2025-12-20T03:42:47.679291+00:00", "meta": {"OBJECT_NAME": "FENGYUN 1C DEB", "OBJECT_ID": "1999-025CZD", "EPOCH": "2025-12-18T05:06:51.185952", "MEAN_MOTION": 13.98351056, "ECCENTRICITY": 0.02332442, "INCLINATION": 98.1017, "RA_OF_ASC_NODE": 168.829, "ARG_OF_PERICENTER": 292.5211, "MEAN_ANOMALY": 65.1418, "EPHEMERIS_TYPE": 0, "CLASSIFICATION_TYPE": "U", "NORAD_CAT_ID": 32360, "ELEMENT_SET_NO": 999, "REV_AT_EPOCH": 64893, "BSTAR": 0.0024572046, "MEAN_MOTION_DOT": 4.391e-05, "MEAN_MOTION_DDOT": 0}, "tle": {"line1": "1 32360U 99025CZD 25352.21309243  .00004391  00000+0  24572-2 0  9998", "line2": "2 32360  98.1017 168.8290 0233244 292.5211  65.1418 13.98351056648932"}}, "geometry": {"type": "Point", "coordinates": [161.4211002155623, 48.0718339480608]}}, {"type": "Feature", "properties": {"norad_id": 32361, "name": "FENGYUN 1C DEB", "group": "fengyun-1c-debris", "lat": 21.552861674630773, "lon": 49.950769518275415, "alt_km": 689.3240714745789, "timestamp": "2025-12-20T03:42:47.679301+00:00", "meta": {"OBJECT_NAME": "FENGYUN 1C DEB", "OBJECT_ID": "1999-025CZE", "EPOCH": "2025-12-18T15:12:27.802368", "MEAN_MOTION": 14.51127075, "ECCENTRICITY": 0.00455952, "INCLINATION": 98.8607, "RA_OF_ASC_NODE": 51.8817, "ARG_OF_PERICENTER": 26.3959, "MEAN_ANOMALY": 333.9543, "EPHEMERIS_TYPE": 0, "CLASSIFICATION_TYPE": "U", "NORAD_CAT_ID": 32361, "ELEMENT_SET_NO": 999, "REV_AT_EPOCH": 96430, "BSTAR": 0.0014332928, "MEAN_MOTION_DOT": 5.714e-05, "MEAN_MOTION_DDOT": 0}, "tle": {"line1": "1 32361U 99025CZE 25352.63365512  .00005714  00000+0  14333-2 0  9990", "line2": "2 32361  98.8607  51.8817 0045595  26.3959 333.9543 14.51127075964302"}}, "geometry": {"type": "Point", "coordinates": [49.950769518275415, 21.552861674630773]}}, {"type": "Feature", "properties": {"norad_id": 32362, "name": "FENGYUN 1C DEB", "group": "fengyun-1c-debris", "lat": -79.36034175673738, "lon": 77.8978936786777, "alt_km": 821.4759915915583, "timestamp": "2025-12-20T03:42:47.679311+00:00", "meta": {"OBJECT_NAME": "FENGYUN 1C DEB", "OBJECT_ID": "1999-025CZF", "EPOCH": "2025-12-18T15:13:18.290208", "MEAN_MOTION": 13.65221337, "ECCENTRICITY": 0.02739077, "INCLINATION": 99.8439, "RA_OF_ASC_NODE": 323.9045, "ARG_OF_PERICENTER": 270.3961, "MEAN_ANOMALY": 86.5803, "EPHEMERIS_TYPE": 0, "CLASSIFICATION_TYPE": "U", "NORAD_CAT_ID": 32362, "ELEMENT_SET_NO": 999, "REV_AT_EPOCH": 91210, "BSTAR": 0.0019883494, "MEAN_MOTION_DOT": 2.038e-05, "MEAN_MOTION_DDOT": 0}, "tle": {"line1": "1 32362U 99025CZF 25352.63423947  .00002038  00000+0  19883-2 0  9999", "line2": "2 32362  99.8439 323.9045 0273907 270.3961  86.5803 13.65221337912108"}}, "geometry": {"type": "Point", "coordinates": [77.8978936786777, -79.36034175673738]}}]}